{
"type": "FeatureCollection",
"crs": { "type": "name", "properties": { "name": "urn:ogc:def:crs:OGC:1.3:CRS84" } },
"features": [
{ "type": "Feature", "properties": { "Station": "Baker Street", "OS X": 527965, "OS Y": 182078, "Latitude": 51.523129366058811, "Longitude": -0.15690419298618449, "Zone": "1", "Postcode": "NW1 5LA" }, "geometry": { "type": "Point", "coordinates": [ -0.156904192986184, 51.523129366058811 ] } },
{ "type": "Feature", "properties": { "Station": "Bermondsey", "OS X": 534461, "OS Y": 179445, "Latitude": 51.497960677506327, "Longitude": -0.064330089811523605, "Zone": "2", "Postcode": "SE16 4RX" }, "geometry": { "type": "Point", "coordinates": [ -0.064330089811524, 51.497960677506327 ] } },
{ "type": "Feature", "properties": { "Station": "Bond Street", "OS X": 528497, "OS Y": 181053, "Latitude": 51.513797282327445, "Longitude": -0.1496136085316461, "Zone": "1", "Postcode": "W1C 2HU" }, "geometry": { "type": "Point", "coordinates": [ -0.149613608531646, 51.513797282327445 ] } },
{ "type": "Feature", "properties": { "Station": "Canada Water", "OS X": 535399, "OS Y": 179493, "Latitude": 51.498168331250881, "Longitude": -0.0508071208490972, "Zone": "2", "Postcode": "SE16 7BB" }, "geometry": { "type": "Point", "coordinates": [ -0.050807120849097, 51.498168331250881 ] } },
{ "type": "Feature", "properties": { "Station": "Canary Wharf", "OS X": 537558, "OS Y": 180153, "Latitude": 51.503578375128868, "Longitude": -0.019466840139324398, "Zone": "2", "Postcode": "E14 4QS" }, "geometry": { "type": "Point", "coordinates": [ -0.019466840139324, 51.503578375128868 ] } },
{ "type": "Feature", "properties": { "Station": "Canning Town", "OS X": 539454, "OS Y": 181350, "Latitude": 51.513870303505122, "Longitude": 0.0083056327487643009, "Zone": "3", "Postcode": "E16 1DQ" }, "geometry": { "type": "Point", "coordinates": [ 0.008305632748764, 51.513870303505122 ] } },
{ "type": "Feature", "properties": { "Station": "Canons Park", "OS X": 518208, "OS Y": 191246, "Latitude": 51.607650090285347, "Longitude": -0.29439159149414601, "Zone": "5", "Postcode": "HA8 6RN" }, "geometry": { "type": "Point", "coordinates": [ -0.294391591494146, 51.607650090285347 ] } },
{ "type": "Feature", "properties": { "Station": "Dollis Hill", "OS X": 522207, "OS Y": 185132, "Latitude": 51.551850202274309, "Longitude": -0.23879775836475761, "Zone": "3", "Postcode": "NW10 5NB" }, "geometry": { "type": "Point", "coordinates": [ -0.238797758364758, 51.551850202274309 ] } },
{ "type": "Feature", "properties": { "Station": "Finchley Road", "OS X": 526293, "OS Y": 184703, "Latitude": 51.547095906434393, "Longitude": -0.1800505586324935, "Zone": "2", "Postcode": "NW6 3BS" }, "geometry": { "type": "Point", "coordinates": [ -0.180050558632494, 51.547095906434393 ] } },
{ "type": "Feature", "properties": { "Station": "Green Park", "OS X": 529012, "OS Y": 180283, "Latitude": 51.506760253714639, "Longitude": -0.14247757442253309, "Zone": "1", "Postcode": "W1J 7BX" }, "geometry": { "type": "Point", "coordinates": [ -0.142477574422533, 51.506760253714639 ] } },
{ "type": "Feature", "properties": { "Station": "Kilburn", "OS X": 524589, "OS Y": 184644, "Latitude": 51.546944102865957, "Longitude": -0.2046327166992552, "Zone": "2", "Postcode": "NW6 7QL" }, "geometry": { "type": "Point", "coordinates": [ -0.204632716699255, 51.546944102865957 ] } },
{ "type": "Feature", "properties": { "Station": "Kingsbury", "OS X": 519361, "OS Y": 188739, "Latitude": 51.584876063491173, "Longitude": -0.27860160371317239, "Zone": "4", "Postcode": "NW9 9EG" }, "geometry": { "type": "Point", "coordinates": [ -0.278601603713172, 51.584876063491173 ] } },
{ "type": "Feature", "properties": { "Station": "London Bridge", "OS X": 532937, "OS Y": 180152, "Latitude": 51.504674209304333, "Longitude": -0.086005597748139595, "Zone": "1", "Postcode": "SE1 2SW" }, "geometry": { "type": "Point", "coordinates": [ -0.08600559774814, 51.504674209304333 ] } },
{ "type": "Feature", "properties": { "Station": "Neasden", "OS X": 521415, "OS Y": 185422, "Latitude": 51.554627310041163, "Longitude": -0.25011504169361221, "Zone": "3", "Postcode": "NW10 1PH" }, "geometry": { "type": "Point", "coordinates": [ -0.250115041693612, 51.554627310041163 ] } },
{ "type": "Feature", "properties": { "Station": "North Greenwich", "OS X": 539168, "OS Y": 179827, "Latitude": 51.500255161089498, "Longitude": 0.0035862591259508002, "Zone": "2,3", "Postcode": "SE10 0PH" }, "geometry": { "type": "Point", "coordinates": [ 0.003586259125951, 51.500255161089498 ] } },
{ "type": "Feature", "properties": { "Station": "Queensbury", "OS X": 518802, "OS Y": 189728, "Latitude": 51.593882509313268, "Longitude": -0.28633159262062902, "Zone": "4", "Postcode": "HA8 5NP" }, "geometry": { "type": "Point", "coordinates": [ -0.286331592620629, 51.593882509313268 ] } },
{ "type": "Feature", "properties": { "Station": "Southwark", "OS X": 531566, "OS Y": 180025, "Latitude": 51.50385344972166, "Longitude": -0.10579493892509211, "Zone": "1", "Postcode": "SE1 8NW" }, "geometry": { "type": "Point", "coordinates": [ -0.105794938925092, 51.50385344972166 ] } },
{ "type": "Feature", "properties": { "Station": "St. Johns Wood", "OS X": 526742, "OS Y": 183352, "Latitude": 51.534854128393292, "Longitude": -0.1740648386620702, "Zone": "2", "Postcode": "NW8 6DN" }, "geometry": { "type": "Point", "coordinates": [ -0.17406483866207, 51.534854128393292 ] } },
{ "type": "Feature", "properties": { "Station": "Stanmore", "OS X": 517574, "OS Y": 192569, "Latitude": 51.619672950483576, "Longitude": -0.30309928759529853, "Zone": "5", "Postcode": "HA7 4PD" }, "geometry": { "type": "Point", "coordinates": [ -0.303099287595299, 51.619672950483576 ] } },
{ "type": "Feature", "properties": { "Station": "Stratford", "OS X": 538533, "OS Y": 184421, "Latitude": 51.541692575873988, "Longitude": -0.0037516410271907002, "Zone": "3", "Postcode": "E15 1AZ" }, "geometry": { "type": "Point", "coordinates": [ -0.003751641027191, 51.541692575873988 ] } },
{ "type": "Feature", "properties": { "Station": "Swiss Cottage", "OS X": 526611, "OS Y": 184259, "Latitude": 51.543034561661599, "Longitude": -0.17562660264113791, "Zone": "2", "Postcode": "NW3 6HY" }, "geometry": { "type": "Point", "coordinates": [ -0.175626602641138, 51.543034561661599 ] } },
{ "type": "Feature", "properties": { "Station": "Waterloo", "OS X": 531050, "OS Y": 179933, "Latitude": 51.503146456783462, "Longitude": -0.1132592512581959, "Zone": "1", "Postcode": "SE1 7NY" }, "geometry": { "type": "Point", "coordinates": [ -0.113259251258196, 51.503146456783462 ] } },
{ "type": "Feature", "properties": { "Station": "Wembley Park", "OS X": 519373, "OS Y": 186341, "Latitude": 51.563322003491571, "Longitude": -0.2792425481111569, "Zone": "4", "Postcode": "HA9 9AA" }, "geometry": { "type": "Point", "coordinates": [ -0.279242548111157, 51.563322003491571 ] } },
{ "type": "Feature", "properties": { "Station": "West Ham", "OS X": 539202, "OS Y": 182974, "Latitude": 51.528525530726974, "Longitude": 0.0053173938327879004, "Zone": "3", "Postcode": "E15 3BN" }, "geometry": { "type": "Point", "coordinates": [ 0.005317393832788, 51.528525530726974 ] } },
{ "type": "Feature", "properties": { "Station": "West Hampstead", "OS X": 525524, "OS Y": 184726, "Latitude": 51.547474022672709, "Longitude": -0.19112658344309519, "Zone": "2", "Postcode": "NW6 2LX" }, "geometry": { "type": "Point", "coordinates": [ -0.191126583443095, 51.547474022672709 ] } },
{ "type": "Feature", "properties": { "Station": "Westminster", "OS X": 530240, "OS Y": 179718, "Latitude": 51.501401389193255, "Longitude": -0.12500207834677959, "Zone": "1", "Postcode": "SW1A 2JR" }, "geometry": { "type": "Point", "coordinates": [ -0.12500207834678, 51.501401389193255 ] } },
{ "type": "Feature", "properties": { "Station": "Willesden Green", "OS X": 523350, "OS Y": 184884, "Latitude": 51.54937292482699, "Longitude": -0.22240760124964681, "Zone": "2,3", "Postcode": "NW2 4QT" }, "geometry": { "type": "Point", "coordinates": [ -0.222407601249647, 51.54937292482699 ] } }
]
}
